ISS (ZARYA)             
1 25544U 98067A   26074.19246378  .00009711  00000+0  18872-3 0  9995
2 25544  51.6330  45.1519 0006363 192.7288 167.3540 15.48288531557187
POISK                   
1 36086U 09060A   26074.19246378  .00009711  00000+0  18872-3 0  9993
2 36086  51.6330  45.1519 0006363 192.7288 167.3540 15.48288531554446
CSS (TIANHE)            
1 48274U 21035A   26073.00269975  .00029757  00000+0  34787-3 0  9993
2 48274  41.4663 181.9138 0006689 299.3968  60.6202 15.60904690278280
ISS (NAUKA)             
1 49044U 21066A   26074.19246378  .00009711  00000+0  18872-3 0  9991
2 49044  51.6330  45.1519 0006363 192.7288 167.3540 15.48288531554455
FREGAT DEB              
1 49271U 11037PF  26071.98788539  .00019193  00000+0  27403-1 0  9997
2 49271  51.6525 290.8604 0961558  66.9712 302.9578 12.40314724213102
CSS (WENTIAN)           
1 53239U 22085A   26073.00269975  .00029757  00000+0  34787-3 0  9996
2 53239  41.4663 181.9138 0006689 299.3968  60.6202 15.60904690275611
CSS (MENGTIAN)          
1 54216U 22143A   26073.00269975  .00029757  00000+0  34787-3 0  9997
2 54216  41.4663 181.9138 0006689 299.3968  60.6202 15.60904690275583
PROGRESS-MS 31          
1 64751U 25146A   26074.19246378  .00009711  00000+0  18872-3 0  9996
2 64751  51.6330  45.1519 0006363 192.7288 167.3540 15.48288531554468
TIANZHOU-9              
1 64786U 25149A   26073.00269975  .00029757  00000+0  34787-3 0  9999
2 64786  41.4663 181.9138 0006689 299.3968  60.6202 15.60904690275597
PROGRESS-MS 32          
1 65586U 25204A   26074.19246378  .00009711  00000+0  18872-3 0  9998
2 65586  51.6330  45.1519 0006363 192.7288 167.3540 15.48288531554500
CYGNUS NG-23            
1 65616U 25208A   26073.41651519  .00013590  00000+0  24569-3 0  9997
2 65616  51.6322  48.9706 0007782 192.9507 167.1283 15.49977850   324
YOTSUBA-KULOVER         
1 65941U 98067XN  26074.13866458  .00281493  00000+0  12361-2 0  9996
2 65941  51.6207  28.9755 0004925 106.6018 253.5526 15.83248054 24369
